{"type": "FeatureCollection", "features": [ {"type": "Feature", "properties": {"norad_id": 66928, "name": "STARLINK-35944", "group": "last-30-days", "lat": -26.230436031773174, "lon": -149.04708967463418, "alt_km": 346.26138352382986, "timestamp": "2025-12-20T22:39:09.408850+00:00", "meta": {"OBJECT_NAME": "STARLINK-35944", "OBJECT_ID": "2025-286D", "EPOCH": "2025-12-20T14:00:03.000384", "MEAN_MOTION": 15.76959301, "ECCENTRICITY": 7.223e-05, "INCLINATION": 53.1566, "RA_OF_ASC_NODE": 11.0664, "ARG_OF_PERICENTER": 62.012, "MEAN_ANOMALY": 264.4128, "EPHEMERIS_TYPE": 0, "CLASSIFICATION_TYPE": "U", "NORAD_CAT_ID": 66928, "ELEMENT_SET_NO": 999, "REV_AT_EPOCH": 325, "BSTAR": -0.0092221814, "MEAN_MOTION_DOT": -0.01359586, "MEAN_MOTION_DDOT": 0}, "tle": {"line1": "1 66928U 25286D   25354.58336806 -.01359586  00000+0 -92222-2 0  9999", "line2": "2 66928  53.1566  11.0664 0000722  62.0120 264.4128 15.76959301  3252"}}, "geometry": {"type": "Point", "coordinates": [-149.04708967463418, -26.230436031773174]}}, {"type": "Feature", "properties": {"norad_id": 66929, "name": "STARLINK-36169", "group": "last-30-days", "lat": -30.632154225712164, "lon": -144.38151963599142, "alt_km": 347.06986392211456, "timestamp": "2025-12-20T22:39:09.408860+00:00", "meta": {"OBJECT_NAME": "STARLINK-36169", "OBJECT_ID": "2025-286E", "EPOCH": "2025-12-20T14:00:03.000384", "MEAN_MOTION": 15.76853775, "ECCENTRICITY": 0.00010424, "INCLINATION": 53.1565, "RA_OF_ASC_NODE": 11.0533, "ARG_OF_PERICENTER": 63.3627, "MEAN_ANOMALY": 269.2408, "EPHEMERIS_TYPE": 0, "CLASSIFICATION_TYPE": "U", "NORAD_CAT_ID": 66929, "ELEMENT_SET_NO": 999, "REV_AT_EPOCH": 325, "BSTAR": -0.0094703448, "MEAN_MOTION_DOT": -0.01386435, "MEAN_MOTION_DDOT": 0}, "tle": {"line1": "1 66929U 25286E   25354.58336806 -.01386435  00000+0 -94703-2 0  9999", "line2": "2 66929  53.1565  11.0533 0001042  63.3627 269.2408 15.76853775  3251"}}, "geometry": {"type": "Point", "coordinates": [-144.38151963599142, -30.632154225712164]}}, {"type": "Feature", "properties": {"norad_id": 66930, "name": "STARLINK-36206", "group": "last-30-days", "lat": -32.03670420556853, "lon": -142.76279533599273, "alt_km": 347.0108748196435, "timestamp": "2025-12-20T22:39:09.408868+00:00", "meta": {"OBJECT_NAME": "STARLINK-36206", "OBJECT_ID": "2025-286F", "EPOCH": "2025-12-20T14:00:03.000384", "MEAN_MOTION": 15.7682762, "ECCENTRICITY": 6.421e-05, "INCLINATION": 53.1565, "RA_OF_ASC_NODE": 11.0491, "ARG_OF_PERICENTER": 75.6752, "MEAN_ANOMALY": 258.9407, "EPHEMERIS_TYPE": 0, "CLASSIFICATION_TYPE": "U", "NORAD_CAT_ID": 66930, "ELEMENT_SET_NO": 999, "REV_AT_EPOCH": 325, "BSTAR": -0.0094803985, "MEAN_MOTION_DOT": -0.01386083, "MEAN_MOTION_DDOT": 0}, "tle": {"line1": "1 66930U 25286F   25354.58336806 -.01386083  00000+0 -94804-2 0  9992", "line2": "2 66930  53.1565  11.0491 0000642  75.6752 258.9407 15.76827620  3250"}}, "geometry": {"type": "Point", "coordinates": [-142.76279533599273, -32.03670420556853]}}, {"type": "Feature", "properties": {"norad_id": 66931, "name": "STARLINK-36130", "group": "last-30-days", "lat": -33.46118167071022, "lon": -141.04278624236372, "alt_km": 347.46490392927444, "timestamp": "2025-12-20T22:39:09.408877+00:00", "meta": {"OBJECT_NAME": "STARLINK-36130", "OBJECT_ID": "2025-286G", "EPOCH": "2025-12-20T14:00:03.000384", "MEAN_MOTION": 15.76775994, "ECCENTRICITY": 0.00010249, "INCLINATION": 53.1564, "RA_OF_ASC_NODE": 11.0447, "ARG_OF_PERICENTER": 69.8593, "MEAN_ANOMALY": 266.8614, "EPHEMERIS_TYPE": 0, "CLASSIFICATION_TYPE": "U", "NORAD_CAT_ID": 66931, "ELEMENT_SET_NO": 999, "REV_AT_EPOCH": 325, "BSTAR": -0.009578092, "MEAN_MOTION_DOT": -0.01396106, "MEAN_MOTION_DDOT": 0}, "tle": {"line1": "1 66931U 25286G   25354.58336806 -.01396106  00000+0 -95781-2 0  9995", "line2": "2 66931  53.1564  11.0447 0001024  69.8593 266.8614 15.76775994  3258"}}, "geometry": {"type": "Point", "coordinates": [-141.04278624236372, -33.46118167071022]}}, {"type": "Feature", "properties": {"norad_id": 66932, "name": "STARLINK-36177", "group": "last-30-days", "lat": -34.84478632025972, "lon": -139.28719381585907, "alt_km": 347.6889306160783, "timestamp": "2025-12-20T22:39:09.408886+00:00", "meta": {"OBJECT_NAME": "STARLINK-36177", "OBJECT_ID": "2025-286H", "EPOCH": "2025-12-20T14:00:03.000384", "MEAN_MOTION": 15.76731396, "ECCENTRICITY": 8.512e-05, "INCLINATION": 53.1565, "RA_OF_ASC_NODE": 11.0402, "ARG_OF_PERICENTER": 62.1005, "MEAN_ANOMALY": 276.6999, "EPHEMERIS_TYPE": 0, "CLASSIFICATION_TYPE": "U", "NORAD_CAT_ID": 66932, "ELEMENT_SET_NO": 999, "REV_AT_EPOCH": 325, "BSTAR": -0.0096668624, "MEAN_MOTION_DOT": -0.01404997, "MEAN_MOTION_DDOT": 0}, "tle": {"line1": "1 66932U 25286H   25354.58336806 -.01404997  00000+0 -96669-2 0  9990", "line2": "2 66932  53.1565  11.0402 0000851  62.1005 276.6999 15.76731396  3255"}}, "geometry": {"type": "Point", "coordinates": [-139.28719381585907, -34.84478632025972]}}, {"type": "Feature", "properties": {"norad_id": 66933, "name": "STARLINK-36157", "group": "last-30-days", "lat": -36.197829063812975, "lon": -137.47756353845082, "alt_km": 347.88132938192484, "timestamp": "2025-12-20T22:39:09.408895+00:00", "meta": {"OBJECT_NAME": "STARLINK-36157", "OBJECT_ID": "2025-286J", "EPOCH": "2025-12-20T14:00:03.000384", "MEAN_MOTION": 15.76684941, "ECCENTRICITY": 8.097e-05, "INCLINATION": 53.1565, "RA_OF_ASC_NODE": 11.036, "ARG_OF_PERICENTER": 59.8186, "MEAN_ANOMALY": 281.0505, "EPHEMERIS_TYPE": 0, "CLASSIFICATION_TYPE": "U", "NORAD_CAT_ID": 66933, "ELEMENT_SET_NO": 999, "REV_AT_EPOCH": 325, "BSTAR": -0.0097181302, "MEAN_MOTION_DOT": -0.01408982, "MEAN_MOTION_DDOT": 0}, "tle": {"line1": "1 66933U 25286J   25354.58336806 -.01408982  00000+0 -97181-2 0  9999", "line2": "2 66933  53.1565  11.0360 0000809  59.8186 281.0505 15.76684941  3251"}}, "geometry": {"type": "Point", "coordinates": [-137.47756353845082, -36.197829063812975]}}, {"type": "Feature", "properties": {"norad_id": 66934, "name": "STARLINK-36153", "group": "last-30-days", "lat": -37.524731136027846, "lon": -135.60103209538605, "alt_km": 348.1569157576696, "timestamp": "2025-12-20T22:39:09.408904+00:00", "meta": {"OBJECT_NAME": "STARLINK-36153", "OBJECT_ID": "2025-286K", "EPOCH": "2025-12-20T14:00:03.000384", "MEAN_MOTION": 15.76639819, "ECCENTRICITY": 9.206e-05, "INCLINATION": 53.156, "RA_OF_ASC_NODE": 11.0317, "ARG_OF_PERICENTER": 68.3927, "MEAN_ANOMALY": 274.5468, "EPHEMERIS_TYPE": 0, "CLASSIFICATION_TYPE": "U", "NORAD_CAT_ID": 66934, "ELEMENT_SET_NO": 999, "REV_AT_EPOCH": 325, "BSTAR": -0.0098019387, "MEAN_MOTION_DOT": -0.01417274, "MEAN_MOTION_DDOT": 0}, "tle": {"line1": "1 66934U 25286K   25354.58336806 -.01417274  00000+0 -98019-2 0  9995", "line2": "2 66934  53.1560  11.0317 0000920  68.3927 274.5468 15.76639819  3250"}}, "geometry": {"type": "Point", "coordinates": [-135.60103209538605, -37.524731136027846]}}, {"type": "Feature", "properties": {"norad_id": 66935, "name": "STARLINK-36127", "group": "last-30-days", "lat": -38.844893216328174, "lon": -133.62055323117215, "alt_km": 348.2402201590985, "timestamp": "2025-12-20T22:39:09.408917+00:00", "meta": {"OBJECT_NAME": "STARLINK-36127", "OBJECT_ID": "2025-286L", "EPOCH": "2025-12-20T14:00:03.000384", "MEAN_MOTION": 15.7654829, "ECCENTRICITY": 6.942e-05, "INCLINATION": 53.1559, "RA_OF_ASC_NODE": 11.0271, "ARG_OF_PERICENTER": 75.0435, "MEAN_ANOMALY": 270.0437, "EPHEMERIS_TYPE": 0, "CLASSIFICATION_TYPE": "U", "NORAD_CAT_ID": 66935, "ELEMENT_SET_NO": 999, "REV_AT_EPOCH": 325, "BSTAR": -0.0095991498, "MEAN_MOTION_DOT": -0.01386055, "MEAN_MOTION_DDOT": 0}, "tle": {"line1": "1 66935U 25286L   25354.58336806 -.01386055  00000+0 -95991-2 0  9994", "line2": "2 66935  53.1559  11.0271 0000694  75.0435 270.0437 15.76548290  3254"}}, "geometry": {"type": "Point", "coordinates": [-133.62055323117215, -38.844893216328174]}}, {"type": "Feature", "properties": {"norad_id": 66936, "name": "STARLINK-36160", "group": "last-30-days", "lat": -40.084797938903186, "lon": -131.6407097804135, "alt_km": 348.4566493842558, "timestamp": "2025-12-20T22:39:09.408929+00:00", "meta": {"OBJECT_NAME": "STARLINK-36160", "OBJECT_ID": "2025-286M", "EPOCH": "2025-12-20T14:00:03.000384", "MEAN_MOTION": 15.76517617, "ECCENTRICITY": 7.344e-05, "INCLINATION": 53.1561, "RA_OF_ASC_NODE": 11.0235, "ARG_OF_PERICENTER": 64.5056, "MEAN_ANOMALY": 282.602, "EPHEMERIS_TYPE": 0, "CLASSIFICATION_TYPE": "U", "NORAD_CAT_ID": 66936, "ELEMENT_SET_NO": 999, "REV_AT_EPOCH": 325, "BSTAR": -0.0096845911, "MEAN_MOTION_DOT": -0.01395333, "MEAN_MOTION_DDOT": 0}, "tle": {"line1": "1 66936U 25286M   25354.58336806 -.01395333  00000+0 -96846-2 0  9994", "line2": "2 66936  53.1561  11.0235 0000734  64.5056 282.6020 15.76517617  3251"}}, "geometry": {"type": "Point", "coordinates": [-131.6407097804135, -40.084797938903186]}}, {"type": "Feature", "properties": {"norad_id": 66937, "name": "STARLINK-36165", "group": "last-30-days", "lat": -41.29300274352708, "lon": -129.58333228043955, "alt_km": 348.740858725776, "timestamp": "2025-12-20T22:39:09.408938+00:00", "meta": {"OBJECT_NAME": "STARLINK-36165", "OBJECT_ID": "2025-286N", "EPOCH": "2025-12-20T14:00:03.000384", "MEAN_MOTION": 15.76482015, "ECCENTRICITY": 8.979e-05, "INCLINATION": 53.1562, "RA_OF_ASC_NODE": 11.0188, "ARG_OF_PERICENTER": 62.7838, "MEAN_ANOMALY": 286.3538, "EPHEMERIS_TYPE": 0, "CLASSIFICATION_TYPE": "U", "NORAD_CAT_ID": 66937, "ELEMENT_SET_NO": 999, "REV_AT_EPOCH": 325, "BSTAR": -0.0097610112, "MEAN_MOTION_DOT": -0.0140321, "MEAN_MOTION_DDOT": 0}, "tle": {"line1": "1 66937U 25286N   25354.58336806 -.01403210  00000+0 -97610-2 0  9999", "line2": "2 66937  53.1562  11.0188 0000897  62.7838 286.3538 15.76482015  3256"}}, "geometry": {"type": "Point", "coordinates": [-129.58333228043955, -41.29300274352708]}}]}